STARLINK-31191          
1 58800U 24012P   26068.32612010 -.00002857  00000+0 -94377-4 0  9994
2 58800  42.9995 167.0192 0000611 223.2336 136.8468 15.27576274121181
YAM-7                   
1 60504U 24149AN  26068.71799904  .00009009  00000+0  30984-3 0  9997
2 60504  97.3828 149.4631 0001973 296.5121  63.5918 15.30304554 86835
